{
    "links": {
        "self": "http://www.neowsapp.com/rest/v1/neo/3710247?api_key=iIulBulltgU6a56xZRHN4H3l9WmuAYTsLGpBGhQ2"
    },
    "id": "3710247",
    "neo_reference_id": "3710247",
    "name": "(2015 CC14)",
    "designation": "2015 CC14",
    "nasa_jpl_url": "http://ssd.jpl.nasa.gov/sbdb.cgi?sstr=3710247",
    "absolute_magnitude_h": 20.5,
    "estimated_diameter": {
        "kilometers": {
            "estimated_diameter_min": 0.2111324448,
            "estimated_diameter_max": 0.4721064988
        },
        "meters": {
            "estimated_diameter_min": 211.1324447897,
            "estimated_diameter_max": 472.1064988055
        },
        "miles": {
            "estimated_diameter_min": 0.1311915784,
            "estimated_diameter_max": 0.2933532873
        },
        "feet": {
            "estimated_diameter_min": 692.6917701639,
            "estimated_diameter_max": 1548.9058855411
        }
    },
    "is_potentially_hazardous_asteroid": false,
    "close_approach_data": [
        {
            "close_approach_date": "1933-01-21",
            "close_approach_date_full": "1933-Jan-21 00:48",
            "epoch_date_close_approach": -1165878720000,
            "relative_velocity": {
                "kilometers_per_second": "16.2315116942",
                "kilometers_per_hour": "58433.4420990944",
                "miles_per_hour": "36308.2685087401"
            },
            "miss_distance": {
                "astronomical": "0.4947546151",
                "lunar": "192.4595452739",
                "kilometers": "74014236.591629837",
                "miles": "45990314.0188402706"
            },
            "orbiting_body": "Earth"
        },
        {
            "close_approach_date": "1974-01-22",
            "close_approach_date_full": "1974-Jan-22 06:52",
            "epoch_date_close_approach": 128069520000,
            "relative_velocity": {
                "kilometers_per_second": "16.06418791",
                "kilometers_per_hour": "57831.0764761786",
                "miles_per_hour": "35933.98193599"
            },
            "miss_distance": {
                "astronomical": "0.4897320007",
                "lunar": "190.5057482723",
                "kilometers": "73262864.175558509",
                "miles": "45523432.8490610642"
            },
            "orbiting_body": "Earth"
        },
        {
            "close_approach_date": "2015-01-23",
            "close_approach_date_full": "2015-Jan-23 17:04",
            "epoch_date_close_approach": 1422032640000,
            "relative_velocity": {
                "kilometers_per_second": "15.9248357255",
                "kilometers_per_hour": "57329.408611732",
                "miles_per_hour": "35622.2650343287"
            },
            "miss_distance": {
                "astronomical": "0.4885737683",
                "lunar": "190.0551958687",
                "kilometers": "73089595.075553521",
                "miles": "45415768.4227837498"
            },
            "orbiting_body": "Earth"
        },
        {
            "close_approach_date": "2056-01-25",
            "close_approach_date_full": "2056-Jan-25 01:31",
            "epoch_date_close_approach": 2715989460000,
            "relative_velocity": {
                "kilometers_per_second": "15.8233728655",
                "kilometers_per_hour": "56964.1423158227",
                "miles_per_hour": "35395.302762851"
            },
            "miss_distance": {
                "astronomical": "0.4923170213",
                "lunar": "191.5113212857",
                "kilometers": "73649577.751224631",
                "miles": "45763725.5224606678"
            },
            "orbiting_body": "Earth"
        }
    ],
    "orbital_data": {
        "orbit_id": "15",
        "orbit_determination_date": "2019-08-05 05:58:43",
        "first_observation_date": "2015-01-09",
        "last_observation_date": "2015-03-22",
        "data_arc_in_days": 72,
        "observations_used": 53,
        "orbit_uncertainty": "4",
        "minimum_orbit_intersection": ".487696",
        "jupiter_tisserand_invariant": "3.644",
        "epoch_osculation": "2459000.5",
        "eccentricity": ".3493526154844587",
        "semi_major_axis": "1.954454695039857",
        "inclination": "31.25880113286809",
        "ascending_node_longitude": "322.7130539189038",
        "orbital_period": "998.0144710759616",
        "perihelion_distance": "1.271660835481803",
        "perihelion_argument": "105.6160590702466",
        "aphelion_distance": "2.637248554597912",
        "perihelion_time": "2458971.816349284208",
        "mean_anomaly": "10.34665784610553",
        "mean_motion": ".3607162124732352",
        "equinox": "J2000",
        "orbit_class": {
            "orbit_class_type": "AMO",
            "orbit_class_description": "Near-Earth asteroid orbits similar to that of 1221 Amor",
            "orbit_class_range": "1.017 AU < q (perihelion) < 1.3 AU"
        }
    },
    "is_sentry_object": false
}